NORAD_CAT_ID,OBJECT_NAME,OBJECT_TYPE,EPOCH,MEAN_MOTION,ECCENTRICITY,INCLINATION,RA_OF_ASC_NODE,ARG_OF_PERICENTER,MEAN_ANOMALY,BSTAR,MEAN_MOTION_DOT,MEAN_MOTION_DDOT,TLE_LINE0,TLE_LINE1,TLE_LINE2,SEMIMAJOR_AXIS,PERIOD,APOGEE,PERIGEE,DECAYED
53897.0,STARLINK-5035,PAYLOAD,2024-03-26 13:00:57,15.08824987,0.0001161,53.2148,285.5582,109.2168,250.895,-0.00074243,-0.00012079,0.0,0 STARLINK-5035,1 53897U 22119M   24086.54233361 -.00012079  00000-0 -74243-3 0  9998,2 53897  53.2148 285.5582 0001161 109.2168 250.8950 15.08824987 83606,6917.926,95.439,540.594,538.988,0.0
53897.0,STARLINK-5035,PAYLOAD,2024-03-26 14:36:21,15.08829244,0.0001178,53.2148,285.2613,107.1161,252.996,0.0004642,7.105e-05,0.0,0 STARLINK-5035,1 53897U 22119M   24086.60857690  .00007105  00000-0  46420-3 0  9990,2 53897  53.2148 285.2613 0001178 107.1161 252.9960 15.08829244 84039,6917.913,95.438,540.593,538.963,0.0
53897.0,STARLINK-5035,PAYLOAD,2024-03-26 22:33:17,15.08829444,0.000119,53.215,283.7748,100.5731,259.5396,0.001276,0.00020072,0.0,0 STARLINK-5035,1 53897U 22119M   24086.93978085  .00020072  00000-0  12760-2 0  9995,2 53897  53.2150 283.7748 0001190 100.5731 259.5396 15.08829444 84081,6917.913,95.438,540.601,538.954,0.0
53897.0,STARLINK-5035,PAYLOAD,2024-03-27 01:44:03,15.08832401,0.0001171,53.215,283.1796,100.5492,259.5632,0.0015232,0.00024032,0.0,0 STARLINK-5035,1 53897U 22119M   24087.07226168  .00024032  00000-0  15232-2 0  9996,2 53897  53.2150 283.1796 0001171 100.5492 259.5632 15.08832401 83686,6917.904,95.438,540.579,538.959,0.0
53897.0,STARLINK-5035,PAYLOAD,2024-03-27 14:27:08,15.08843407,0.0001222,53.215,280.8003,101.4802,258.6328,0.00098653,0.00015449,0.0,0 STARLINK-5035,1 53897U 22119M   24087.60218271  .00015449  00000-0  98653-3 0  9992,2 53897  53.2150 280.8003 0001222 101.4802 258.6328 15.08843407 84189,6917.87,95.437,540.58,538.89,0.0
53897.0,STARLINK-5035,PAYLOAD,2024-03-27 19:13:17,15.08850673,0.00012,53.2152,279.9084,98.6527,261.4601,0.0010711,0.00016805,0.0,0 STARLINK-5035,1 53897U 22119M   24087.80090141  .00016805  00000-0  10711-2 0  9993,2 53897  53.2152 279.9084 0001200  98.6527 261.4601 15.08850673 83791,6917.848,95.437,540.543,538.883,0.0
53897.0,STARLINK-5035,PAYLOAD,2024-03-27 22:24:03,15.08857756,0.0001191,53.2153,279.3133,99.7095,260.4032,0.0011314,0.00017773,0.0,0 STARLINK-5035,1 53897U 22119M   24087.93337955  .00017773  00000-0  11314-2 0  9999,2 53897  53.2153 279.3133 0001191  99.7095 260.4032 15.08857756 84238,6917.826,95.436,540.515,538.867,0.0
53897.0,STARLINK-5035,PAYLOAD,2024-03-28 12:42:32,15.08840774,0.0001278,53.2155,276.6363,93.6196,266.4942,-6.228e-05,-1.279e-05,0.0,0 STARLINK-5035,1 53897U 22119M   24088.52953937 -.00001279  00000-0 -62280-4 0  9995,2 53897  53.2155 276.6363 0001278  93.6196 266.4942 15.08840774 83907,6917.878,95.438,540.627,538.859,0.0
53897.0,STARLINK-5035,PAYLOAD,2024-03-28 14:17:55,15.08844231,0.0001277,53.2155,276.3394,90.1125,270.0014,0.00016728,2.376e-05,0.0,0 STARLINK-5035,1 53897U 22119M   24088.59577928  .00002376  00000-0  16728-3 0  9996,2 53897  53.2155 276.3394 0001277  90.1125 270.0014 15.08844231 84332,6917.867,95.437,540.616,538.849,0.0
53897.0,STARLINK-5035,PAYLOAD,2024-03-28 22:14:50,15.08852588,0.0001285,53.2157,274.8525,85.9609,274.153,0.00061418,9.504e-05,0.0,0 STARLINK-5035,1 53897U 22119M   24088.92697783  .00009504  00000-0  61418-3 0  9991,2 53897  53.2157 274.8525 0001285  85.9609 274.1530 15.08852588 84388,6917.842,95.437,540.596,538.818,0.0
53897.0,STARLINK-5035,PAYLOAD,2024-03-28 23:50:13,15.08855173,0.000129,53.2157,274.5551,84.8134,275.3006,0.00071952,0.00011186,0.0,0 STARLINK-5035,1 53897U 22119M   24088.99321718  .00011186  00000-0  71952-3 0  9993,2 53897  53.2157 274.5551 0001290  84.8134 275.3006 15.08855173 83979,6917.834,95.437,540.591,538.807,0.0
53897.0,STARLINK-5035,PAYLOAD,2024-03-29 12:33:19,15.08845713,0.0001236,53.2159,272.1758,94.51,265.6033,0.00043914,6.709e-05,0.0,0 STARLINK-5035,1 53897U 22119M   24089.52313913  .00006709  00000-0  43914-3 0  9993,2 53897  53.2159 272.1758 0001236  94.5100 265.6033 15.08845713 84056,6917.863,95.437,540.583,538.873,0.0
53897.0,STARLINK-5035,PAYLOAD,2024-03-29 14:08:42,15.08840202,0.0001253,53.216,271.8786,90.1658,269.9478,0.00032989,4.966e-05,0.0,0 STARLINK-5035,1 53897U 22119M   24089.58938059  .00004966  00000-0  32989-3 0  9996,2 53897  53.2160 271.8786 0001253  90.1658 269.9478 15.08840202 84489,6917.88,95.438,540.612,538.878,0.0
53897.0,STARLINK-5035,PAYLOAD,2024-03-29 22:05:38,15.08844019,0.0001215,53.2163,270.3917,87.1892,272.9239,0.0004019,6.115e-05,0.0,0 STARLINK-5035,1 53897U 22119M   24089.92058003  .00006115  00000-0  40190-3 0  9997,2 53897  53.2163 270.3917 0001215  87.1892 272.9239 15.08844019 84531,6917.868,95.437,540.574,538.893,0.0
53897.0,STARLINK-5035,PAYLOAD,2024-03-30 12:24:06,15.08840823,0.0001223,53.2162,267.7157,88.4696,271.6436,0.00019698,2.849e-05,0.0,0 STARLINK-5035,1 53897U 22119M   24090.51674234  .00002849  00000-0  19698-3 0  9993,2 53897  53.2162 267.7157 0001223  88.4696 271.6436 15.08840823 84209,6917.878,95.438,540.589,538.897,0.0
53897.0,STARLINK-5035,PAYLOAD,2024-03-30 21:56:25,15.08844929,0.0001215,53.2163,265.9316,86.4203,273.6928,0.0003192,4.797e-05,0.0,0 STARLINK-5035,1 53897U 22119M   24090.91418264  .00004797  00000-0  31920-3 0  9992,2 53897  53.2163 265.9316 0001215  86.4203 273.6928 15.08844929 84681,6917.865,95.437,540.571,538.89,0.0
53897.0,STARLINK-5035,PAYLOAD,2024-03-31 10:39:30,15.08846872,0.0001922,53.2164,263.5524,87.3211,272.8001,0.0003393,5.117e-05,0.0,0 STARLINK-5035,1 53897U 22119M   24091.44410534  .00005117  00000-0  33930-3 0  9993,2 53897  53.2164 263.5524 0001922  87.3211 272.8001 15.08846872 84762,6917.859,95.437,541.054,538.395,0.0
53897.0,STARLINK-5035,PAYLOAD,2024-03-31 18:36:26,15.08840882,0.0001305,53.2163,262.0664,86.9642,273.1499,0.0002057,2.987e-05,0.0,0 STARLINK-5035,1 53897U 22119M   24091.77530582  .00002987  00000-0  20570-3 0  9993,2 53897  53.2163 262.0664 0001305  86.9642 273.1499 15.08840882 84397,6917.878,95.437,540.645,538.84,0.0
53897.0,STARLINK-5035,PAYLOAD,2024-04-01 10:30:18,15.08832092,0.0002246,53.2191,259.0965,87.3851,272.7398,0.00065978,0.00010226,0.0,0 STARLINK-5035,1 53897U 22119M   24092.43771587  .00010226  00000-0  65978-3 0  9995,2 53897  53.2191 259.0965 0002246  87.3851 272.7398 15.08832092 84498,6917.905,95.438,541.323,538.216,0.0
53897.0,STARLINK-5035,PAYLOAD,2024-04-02 10:21:04,15.08838753,0.0001399,53.2163,254.6356,92.3339,267.7814,9.91e-05,1.29e-05,0.0,0 STARLINK-5035,1 53897U 22119M   24093.43130647  .00001290  00000-0  99100-4 0  9998,2 53897  53.2163 254.6356 0001399  92.3339 267.7814 15.08838753 85068,6917.884,95.438,540.717,538.781,0.0
53897.0,STARLINK-5035,PAYLOAD,2024-04-02 19:53:23,15.08839218,0.0001248,53.2167,252.8487,89.3144,270.7991,8.657e-05,1.09e-05,0.0,0 STARLINK-5035,1 53897U 22119M   24093.82874883  .00001090  00000-0  86570-4 0  9993,2 53897  53.2167 252.8487 0001248  89.3144 270.7991 15.08839218 84707,6917.883,95.438,540.611,538.884,0.0
53897.0,STARLINK-5035,PAYLOAD,2024-04-03 10:11:52,15.08841111,0.0001278,53.2167,250.1727,92.0136,268.1002,0.00023192,3.405e-05,0.0,0 STARLINK-5035,1 53897U 22119M   24094.42490965  .00003405  00000-0  23192-3 0  9997,2 53897  53.2167 250.1727 0001278  92.0136 268.1002 15.08841111 85216,6917.877,95.437,540.626,538.858,0.0
53897.0,STARLINK-5035,PAYLOAD,2024-04-03 19:44:10,15.08848522,0.0001211,53.2157,248.3873,96.2444,263.8686,0.00032199,4.841e-05,0.0,0 STARLINK-5035,1 53897U 22119M   24094.82234659  .00004841  00000-0  32199-3 0  9999,2 53897  53.2157 248.3873 0001211  96.2444 263.8686 15.08848522 85270,6917.854,95.437,540.557,538.882,0.0
53897.0,STARLINK-5035,PAYLOAD,2024-04-04 03:41:06,15.08851895,0.0001236,53.2158,246.901,93.1241,266.9892,0.00034986,5.286e-05,0.0,0 STARLINK-5035,1 53897U 22119M   24095.15354497  .00005286  00000-0  34986-3 0  9999,2 53897  53.2158 246.9010 0001236  93.1241 266.9892 15.08851895 84905,6917.844,95.437,540.564,538.854,0.0
53897.0,STARLINK-5035,PAYLOAD,2024-04-04 13:13:25,15.08843691,0.000163,53.2156,245.1166,97.0651,263.0526,0.00022514,3.297e-05,0.0,0 STARLINK-5035,1 53897U 22119M   24095.55098948  .00003297  00000-0  22514-3 0  9993,2 53897  53.2156 245.1166 0001630  97.0651 263.0526 15.08843691 84965,6917.869,95.437,540.862,538.606,0.0
53897.0,STARLINK-5035,PAYLOAD,2024-04-04 14:48:48,15.08840202,0.0001528,53.2166,244.8182,103.8181,256.2981,0.000122,1.654e-05,0.0,0 STARLINK-5035,1 53897U 22119M   24095.61722978  .00001654  00000-0  12200-3 0  9993,2 53897  53.2166 244.8182 0001528 103.8181 256.2981 15.08840202 85392,6917.88,95.438,540.802,538.688,0.0
53897.0,STARLINK-5035,PAYLOAD,2024-04-04 16:24:11,15.0883874,0.0001438,53.217,244.5213,102.769,257.3463,4.9371e-05,4.98e-06,0.0,0 STARLINK-5035,1 53897U 22119M   24095.68347001  .00000498  00000-0  49371-4 0  9995,2 53897  53.2170 244.5213 0001438 102.7690 257.3463 15.08838740 85405,6917.884,95.438,540.744,538.754,0.0
53897.0,STARLINK-5035,PAYLOAD,2024-04-05 14:39:35,15.0885087,0.0001558,53.2181,240.3574,106.3266,253.7897,0.00016172,2.287e-05,0.0,0 STARLINK-5035,1 53897U 22119M   24096.61082272  .00002287  00000-0  16172-3 0  9995,2 53897  53.2181 240.3574 0001558 106.3266 253.7897 15.08850870 85547,6917.847,95.437,540.79,538.634,0.0
53897.0,STARLINK-5035,PAYLOAD,2024-04-05 19:25:44,15.08848579,0.0001571,53.2182,239.465,108.5531,251.5632,0.00032198,4.841e-05,0.0,0 STARLINK-5035,1 53897U 22119M   24096.80954324  .00004841  00000-0  32198-3 0  9996,2 53897  53.2182 239.4650 0001571 108.5531 251.5632 15.08848579 85159,6917.854,95.437,540.806,538.632,0.0
53897.0,STARLINK-5035,PAYLOAD,2024-04-06 09:44:12,15.08841042,0.000134,53.2168,236.7901,100.9763,259.138,0.00013811,1.911e-05,0.0,0 STARLINK-5035,1 53897U 22119M   24097.40570598  .00001911  00000-0  13811-3 0  9996,2 53897  53.2168 236.7901 0001340 100.9763 259.1380 15.08841042 85241,6917.877,95.437,540.669,538.815,0.0
